STARLINK-35733          
1 66224U 25244U   25324.78080094  .00065882  00000+0  11798-2 0  9995
2 66224  53.1600  19.4302 0001686  99.4097 260.7103 15.49376808  4931
STARLINK-35734          
1 66225U 25244V   25324.78113726  .00088926  00000+0  15879-2 0  9993
2 66225  53.1599  19.4320 0002931  43.4338 316.6901 15.49322233  4930
STARLINK-34466          
1 66226U 25244W   25324.78046475  .00070826  00000+0  12691-2 0  9999
2 66226  53.1599  19.4268 0001458  97.1899 262.9275 15.49327709  4933
STARLINK-34882          
1 66227U 25244X   25324.71560647  .00044207  00000+0  79970-3 0  9993
2 66227  53.1600  19.7322 0001537  75.2598 284.8581 15.49262642  4928
STARLINK-35731          
1 66228U 25244Y   25324.65073277  .00053444  00000+0  96218-3 0  9992
2 66228  53.1601  20.0386 0001221  85.2326 274.8822 15.49316106  4916
STARLINK-35758          
1 66229U 25244Z   25324.77941618  .00064555  00000+0  11586-2 0  9998
2 66229  53.1601  19.4206 0001840  56.4020 303.7164 15.49323036  4931
STARLINK-35736          
1 66230U 25244AA  25324.71456113  .00070573  00000+0  12642-2 0  9996
2 66230  53.1601  19.7258 0001274  72.3932 287.7216 15.49338608  4922
STARLINK-35735          
1 66231U 25244AB  25324.71422039  .00056670  00000+0  10191-2 0  9996
2 66231  53.1601  19.7239 0001622  57.2562 302.8604 15.49321586  4927
STARLINK-35753          
1 66232U 25244AC  25324.64936701  .00066376  00000+0  11903-2 0  9991
2 66232  53.1601  20.0304 0001418  84.9741 275.1430 15.49334309  4910
STARLINK-35626          
1 66233U 25244AD  25324.77804359  .00081209  00000+0  14523-2 0  9992
2 66233  53.1602  19.4114 0002103  54.4515 305.6690 15.49323098  4938
STARLINK-35537          
1 66234U 25245A   25324.83336806  .00048871  00000+0  88345-3 0  9990
2 66234  53.1602  73.0297 0001389  97.5296 159.5526 15.49237982  4587
STARLINK-35541          
1 66235U 25245B   25324.83336806  .00058214  00000+0  10501-2 0  9991
2 66235  53.1601  73.0252 0001322  87.9917 171.0050 15.49223948  4531
