CCSDS_OMM_VERS = 2.0
CREATION_DATE  = 
ORIGINATOR     = 

OBJECT_NAME    = STARLINK-35733
OBJECT_ID      = 2025-244U
CENTER_NAME    = EARTH
REF_FRAME      = TEME
TIME_SYSTEM    = UTC
MEAN_ELEMENT_THEORY = SGP/SGP4

EPOCH          = 2025-11-20T18:44:21.201216
MEAN_MOTION    = 15.49376808
ECCENTRICITY   = .0001686
INCLINATION    = 53.1600
RA_OF_ASC_NODE = 19.4302
ARG_OF_PERICENTER = 99.4097
MEAN_ANOMALY   = 260.7103

EPHEMERIS_TYPE = 0
CLASSIFICATION_TYPE = U
NORAD_CAT_ID   = 66224
ELEMENT_SET_NO = 999
REV_AT_EPOCH   = 493
BSTAR          = .11798E-2
MEAN_MOTION_DOT = .65882E-3
MEAN_MOTION_DDOT = 0

CCSDS_OMM_VERS = 2.0
CREATION_DATE  = 
ORIGINATOR     = 

OBJECT_NAME    = STARLINK-35734
OBJECT_ID      = 2025-244V
CENTER_NAME    = EARTH
REF_FRAME      = TEME
TIME_SYSTEM    = UTC
MEAN_ELEMENT_THEORY = SGP/SGP4

EPOCH          = 2025-11-20T18:44:50.259264
MEAN_MOTION    = 15.49322233
ECCENTRICITY   = .0002931
INCLINATION    = 53.1599
RA_OF_ASC_NODE = 19.4320
ARG_OF_PERICENTER = 43.4338
MEAN_ANOMALY   = 316.6901

EPHEMERIS_TYPE = 0
CLASSIFICATION_TYPE = U
NORAD_CAT_ID   = 66225
ELEMENT_SET_NO = 999
REV_AT_EPOCH   = 493
BSTAR          = .15879E-2
MEAN_MOTION_DOT = .88926E-3
MEAN_MOTION_DDOT = 0

CCSDS_OMM_VERS = 2.0
CREATION_DATE  = 
ORIGINATOR     = 

OBJECT_NAME    = STARLINK-34466
OBJECT_ID      = 2025-244W
CENTER_NAME    = EARTH
REF_FRAME      = TEME
TIME_SYSTEM    = UTC
MEAN_ELEMENT_THEORY = SGP/SGP4

EPOCH          = 2025-11-20T18:43:52.154400
MEAN_MOTION    = 15.49327709
ECCENTRICITY   = .0001458
INCLINATION    = 53.1599
RA_OF_ASC_NODE = 19.4268
ARG_OF_PERICENTER = 97.1899
MEAN_ANOMALY   = 262.9275

EPHEMERIS_TYPE = 0
CLASSIFICATION_TYPE = U
NORAD_CAT_ID   = 66226
ELEMENT_SET_NO = 999
REV_AT_EPOCH   = 493
BSTAR          = .12691E-2
MEAN_MOTION_DOT = .70826E-3
MEAN_MOTION_DDOT = 0

CCSDS_OMM_VERS = 2.0
CREATION_DATE  = 
ORIGINATOR     = 

OBJECT_NAME    = STARLINK-34882
OBJECT_ID      = 2025-244X
CENTER_NAME    = EARTH
REF_FRAME      = TEME
TIME_SYSTEM    = UTC
MEAN_ELEMENT_THEORY = SGP/SGP4

EPOCH          = 2025-11-20T17:10:28.399008
MEAN_MOTION    = 15.49262642
ECCENTRICITY   = .0001537
INCLINATION    = 53.1600
RA_OF_ASC_NODE = 19.7322
ARG_OF_PERICENTER = 75.2598
MEAN_ANOMALY   = 284.8581

EPHEMERIS_TYPE = 0
CLASSIFICATION_TYPE = U
NORAD_CAT_ID   = 66227
ELEMENT_SET_NO = 999
REV_AT_EPOCH   = 492
BSTAR          = .7997E-3
MEAN_MOTION_DOT = .44207E-3
MEAN_MOTION_DDOT = 0

CCSDS_OMM_VERS = 2.0
CREATION_DATE  = 
ORIGINATOR     = 

OBJECT_NAME    = STARLINK-35731
OBJECT_ID      = 2025-244Y
CENTER_NAME    = EARTH
REF_FRAME      = TEME
TIME_SYSTEM    = UTC
MEAN_ELEMENT_THEORY = SGP/SGP4

EPOCH          = 2025-11-20T15:37:03.311328
MEAN_MOTION    = 15.49316106
ECCENTRICITY   = .0001221
INCLINATION    = 53.1601
RA_OF_ASC_NODE = 20.0386
ARG_OF_PERICENTER = 85.2326
MEAN_ANOMALY   = 274.8822

EPHEMERIS_TYPE = 0
CLASSIFICATION_TYPE = U
NORAD_CAT_ID   = 66228
ELEMENT_SET_NO = 999
REV_AT_EPOCH   = 491
BSTAR          = .96218E-3
MEAN_MOTION_DOT = .53444E-3
MEAN_MOTION_DDOT = 0

CCSDS_OMM_VERS = 2.0
CREATION_DATE  = 
ORIGINATOR     = 

OBJECT_NAME    = STARLINK-35758
OBJECT_ID      = 2025-244Z
CENTER_NAME    = EARTH
REF_FRAME      = TEME
TIME_SYSTEM    = UTC
MEAN_ELEMENT_THEORY = SGP/SGP4

EPOCH          = 2025-11-20T18:42:21.557952
MEAN_MOTION    = 15.49323036
ECCENTRICITY   = .000184
INCLINATION    = 53.1601
RA_OF_ASC_NODE = 19.4206
ARG_OF_PERICENTER = 56.4020
MEAN_ANOMALY   = 303.7164

EPHEMERIS_TYPE = 0
CLASSIFICATION_TYPE = U
NORAD_CAT_ID   = 66229
ELEMENT_SET_NO = 999
REV_AT_EPOCH   = 493
BSTAR          = .11586E-2
MEAN_MOTION_DOT = .64555E-3
MEAN_MOTION_DDOT = 0

CCSDS_OMM_VERS = 2.0
CREATION_DATE  = 
ORIGINATOR     = 

OBJECT_NAME    = STARLINK-35736
OBJECT_ID      = 2025-244AA
CENTER_NAME    = EARTH
REF_FRAME      = TEME
TIME_SYSTEM    = UTC
MEAN_ELEMENT_THEORY = SGP/SGP4

EPOCH          = 2025-11-20T17:08:58.081632
MEAN_MOTION    = 15.49338608
ECCENTRICITY   = .0001274
INCLINATION    = 53.1601
RA_OF_ASC_NODE = 19.7258
ARG_OF_PERICENTER = 72.3932
MEAN_ANOMALY   = 287.7216

EPHEMERIS_TYPE = 0
CLASSIFICATION_TYPE = U
NORAD_CAT_ID   = 66230
ELEMENT_SET_NO = 999
REV_AT_EPOCH   = 492
BSTAR          = .12642E-2
MEAN_MOTION_DOT = .70573E-3
MEAN_MOTION_DDOT = 0

CCSDS_OMM_VERS = 2.0
CREATION_DATE  = 
ORIGINATOR     = 

OBJECT_NAME    = STARLINK-35735
OBJECT_ID      = 2025-244AB
CENTER_NAME    = EARTH
REF_FRAME      = TEME
TIME_SYSTEM    = UTC
MEAN_ELEMENT_THEORY = SGP/SGP4

EPOCH          = 2025-11-20T17:08:28.641696
MEAN_MOTION    = 15.49321586
ECCENTRICITY   = .0001622
INCLINATION    = 53.1601
RA_OF_ASC_NODE = 19.7239
ARG_OF_PERICENTER = 57.2562
MEAN_ANOMALY   = 302.8604

EPHEMERIS_TYPE = 0
CLASSIFICATION_TYPE = U
NORAD_CAT_ID   = 66231
ELEMENT_SET_NO = 999
REV_AT_EPOCH   = 492
BSTAR          = .10191E-2
MEAN_MOTION_DOT = .5667E-3
MEAN_MOTION_DDOT = 0

CCSDS_OMM_VERS = 2.0
CREATION_DATE  = 
ORIGINATOR     = 

OBJECT_NAME    = STARLINK-35753
OBJECT_ID      = 2025-244AC
CENTER_NAME    = EARTH
REF_FRAME      = TEME
TIME_SYSTEM    = UTC
MEAN_ELEMENT_THEORY = SGP/SGP4

EPOCH          = 2025-11-20T15:35:05.309664
MEAN_MOTION    = 15.49334309
ECCENTRICITY   = .0001418
INCLINATION    = 53.1601
RA_OF_ASC_NODE = 20.0304
ARG_OF_PERICENTER = 84.9741
MEAN_ANOMALY   = 275.1430

EPHEMERIS_TYPE = 0
CLASSIFICATION_TYPE = U
NORAD_CAT_ID   = 66232
ELEMENT_SET_NO = 999
REV_AT_EPOCH   = 491
BSTAR          = .11903E-2
MEAN_MOTION_DOT = .66376E-3
MEAN_MOTION_DDOT = 0

CCSDS_OMM_VERS = 2.0
CREATION_DATE  = 
ORIGINATOR     = 

OBJECT_NAME    = STARLINK-35626
OBJECT_ID      = 2025-244AD
CENTER_NAME    = EARTH
REF_FRAME      = TEME
TIME_SYSTEM    = UTC
MEAN_ELEMENT_THEORY = SGP/SGP4

EPOCH          = 2025-11-20T18:40:22.966176
MEAN_MOTION    = 15.49323098
ECCENTRICITY   = .0002103
INCLINATION    = 53.1602
RA_OF_ASC_NODE = 19.4114
ARG_OF_PERICENTER = 54.4515
MEAN_ANOMALY   = 305.6690

EPHEMERIS_TYPE = 0
CLASSIFICATION_TYPE = U
NORAD_CAT_ID   = 66233
ELEMENT_SET_NO = 999
REV_AT_EPOCH   = 493
BSTAR          = .14523E-2
MEAN_MOTION_DOT = .81209E-3
MEAN_MOTION_DDOT = 0

CCSDS_OMM_VERS = 2.0
CREATION_DATE  = 
ORIGINATOR     = 

OBJECT_NAME    = STARLINK-35537
OBJECT_ID      = 2025-245A
CENTER_NAME    = EARTH
REF_FRAME      = TEME
TIME_SYSTEM    = UTC
MEAN_ELEMENT_THEORY = SGP/SGP4

EPOCH          = 2025-11-20T20:00:03.000384
MEAN_MOTION    = 15.49237982
ECCENTRICITY   = .0001389
INCLINATION    = 53.1602
RA_OF_ASC_NODE = 73.0297
ARG_OF_PERICENTER = 97.5296
MEAN_ANOMALY   = 159.5526

EPHEMERIS_TYPE = 0
CLASSIFICATION_TYPE = U
NORAD_CAT_ID   = 66234
ELEMENT_SET_NO = 999
REV_AT_EPOCH   = 458
BSTAR          = .88345E-3
MEAN_MOTION_DOT = .48871E-3
MEAN_MOTION_DDOT = 0

CCSDS_OMM_VERS = 2.0
CREATION_DATE  = 
ORIGINATOR     = 

OBJECT_NAME    = STARLINK-35541
OBJECT_ID      = 2025-245B
CENTER_NAME    = EARTH
REF_FRAME      = TEME
TIME_SYSTEM    = UTC
MEAN_ELEMENT_THEORY = SGP/SGP4

EPOCH          = 2025-11-20T20:00:03.000384
MEAN_MOTION    = 15.49223948
ECCENTRICITY   = .0001322
INCLINATION    = 53.1601
RA_OF_ASC_NODE = 73.0252
ARG_OF_PERICENTER = 87.9917
MEAN_ANOMALY   = 171.0050

EPHEMERIS_TYPE = 0
CLASSIFICATION_TYPE = U
NORAD_CAT_ID   = 66235
ELEMENT_SET_NO = 999
REV_AT_EPOCH   = 453
BSTAR          = .10501E-2
MEAN_MOTION_DOT = .58214E-3
MEAN_MOTION_DDOT = 0

